[{"OBJECT_NAME":"NINGXIA-1 7","OBJECT_ID":"2021-064B","EPOCH":"2026-03-09T23:03:16.134624","MEAN_MOTION":14.08535138,"ECCENTRICITY":0.00060368,"INCLINATION":45.0039,"RA_OF_ASC_NODE":315.6009,"ARG_OF_PERICENTER":124.1771,"MEAN_ANOMALY":235.9639,"EPHEMERIS_TYPE":0,"CLASSIFICATION_TYPE":"U","NORAD_CAT_ID":49019,"ELEMENT_SET_NO":999,"REV_AT_EPOCH":24025,"BSTAR":0.00016183554,"MEAN_MOTION_DOT":1.48e-6,"MEAN_MOTION_DDOT":0},{"OBJECT_NAME":"FENGYUN 1C DEB","OBJECT_ID":"1999-025MN","EPOCH":"2026-03-09T16:00:11.659104","MEAN_MOTION":13.87888423,"ECCENTRICITY":0.0128176,"INCLINATION":99.5736,"RA_OF_ASC_NODE":95.2904,"ARG_OF_PERICENTER":172.258,"MEAN_ANOMALY":304.8249,"EPHEMERIS_TYPE":0,"CLASSIFICATION_TYPE":"U","NORAD_CAT_ID":30013,"ELEMENT_SET_NO":999,"REV_AT_EPOCH":96887,"BSTAR":0.00026675,"MEAN_MOTION_DOT":2.92e-6,"MEAN_MOTION_DDOT":0}]
